NORAD_CAT_ID,OBJECT_NAME,OBJECT_TYPE,EPOCH,MEAN_MOTION,ECCENTRICITY,INCLINATION,RA_OF_ASC_NODE,ARG_OF_PERICENTER,MEAN_ANOMALY,BSTAR,MEAN_MOTION_DOT,MEAN_MOTION_DDOT,TLE_LINE0,TLE_LINE1,TLE_LINE2,SEMIMAJOR_AXIS,PERIOD,APOGEE,PERIGEE,DECAYED
52642.0,STARLINK-3971,PAYLOAD,2022-12-07 20:31:48,15.08802352,0.000335,53.2174,191.5073,344.0459,16.0427,-0.00031575,-5.306e-05,0.0,0 STARLINK-3971,1 52642U 22052AW  22341.85542401 -.00005306  00000-0 -31575-3 0  9991,2 52642  53.2174 191.5073 0003350 344.0459  16.0427 15.08802352 31805,6917.995,95.44,542.178,537.543,0.0
52642.0,STARLINK-3971,PAYLOAD,2022-12-07 23:42:28,15.08893187,0.000216,53.2172,190.9131,36.8372,323.2768,0.00049149,7.554e-05,0.0,0 STARLINK-3971,1 52642U 22052AW  22341.98782595  .00007554  00000-0  49149-3 0  9996,2 52642  53.2172 190.9131 0002160  36.8372 323.2768 15.08893187 32201,6917.718000000003,95.434,541.077,538.089,0.0
52642.0,STARLINK-3971,PAYLOAD,2022-12-08 07:39:32,15.08763888,0.0002001,53.2175,189.4269,340.1671,19.9243,-0.00067613,-0.0001101,0.0,0 STARLINK-3971,1 52642U 22052AW  22342.31912367 -.00011010  00000-0 -67613-3 0  9996,2 52642  53.2175 189.4269 0002001 340.1671  19.9243 15.08763888 31879,6918.113,95.442,541.362,538.594,0.0
52642.0,STARLINK-3971,PAYLOAD,2022-12-09 02:44:06,15.08823097,0.0002259,53.2177,185.862,40.5615,319.5545,8.9534e-05,1.136e-05,0.0,0 STARLINK-3971,1 52642U 22052AW  22343.11395842  .00001136  00000-0  89534-4 0  9991,2 52642  53.2177 185.8620 0002259  40.5615 319.5545 15.08823097 32375,6917.932,95.439,541.36,538.234,0.0
52642.0,STARLINK-3971,PAYLOAD,2022-12-09 20:13:20,15.08835122,0.0003446,53.2178,182.5876,37.4112,322.712,-6.5251e-05,-1.327e-05,0.0,0 STARLINK-3971,1 52642U 22052AW  22343.84259856 -.00001327  00000-0 -65251-4 0  9999,2 52642  53.2178 182.5876 0003446  37.4112 322.7120 15.08835122 32488,6917.895,95.438,542.144,537.376,0.0
52642.0,STARLINK-3971,PAYLOAD,2022-12-10 00:59:29,15.08835784,0.0003304,53.2165,181.6935,35.7349,324.3864,-2.2539e-05,-6.47e-06,0.0,0 STARLINK-3971,1 52642U 22052AW  22344.04131714 -.00000647  00000-0 -22539-4 0  9990,2 52642  53.2165 181.6935 0003304  35.7349 324.3864 15.08835784 32135,6917.893,95.438,542.044,537.4730000000002,0.0
52642.0,STARLINK-3971,PAYLOAD,2022-12-10 20:04:07,15.08835167,0.0003389,53.2177,178.1242,38.6459,321.4775,3.5091999999999995e-05,2.7000000000000004e-06,0.0,0 STARLINK-3971,1 52642U 22052AW  22344.83619768  .00000270  00000-0  35092-4 0  9995,2 52642  53.2177 178.1242 0003389  38.6459 321.4775 15.08835167 32254,6917.895,95.438,542.105,537.4159999999998,0.0
52642.0,STARLINK-3971,PAYLOAD,2022-12-10 23:14:53,15.08836116,0.00034,53.2177,177.5294,38.87300000000001,321.2506,4.1422e-05,3.700000000000001e-06,0.0,0 STARLINK-3971,1 52642U 22052AW  22344.96867731  .00000370  00000-0  41422-4 0  9999,2 52642  53.2177 177.5294 0003400  38.8730 321.2506 15.08836116 32651,6917.892,95.438,542.109,537.405,0.0
52642.0,STARLINK-3971,PAYLOAD,2022-12-11 13:33:21,15.08837494,0.0003386,53.2174,174.8534,39.2819,320.8418,9.3693e-05,1.203e-05,0.0,0 STARLINK-3971,1 52642U 22052AW  22345.56483614  .00001203  00000-0  93693-4 0  9993,2 52642  53.2174 174.8534 0003386  39.2819 320.8418 15.08837494 32366,6917.888000000001,95.438,542.095,537.411,0.0
52642.0,STARLINK-3971,PAYLOAD,2022-12-11 18:19:31,15.0883764,0.0003402,53.2174,173.9613,39.6165,320.5075,0.00013163,1.807e-05,0.0,0 STARLINK-3971,1 52642U 22052AW  22345.76355556  .00001807  00000-0  13163-3 0  9991,2 52642  53.2174 173.9613 0003402  39.6165 320.5075 15.08837640 32393,6917.888000000001,95.438,542.106,537.399,0.0
52642.0,STARLINK-3971,PAYLOAD,2022-12-12 13:24:09,15.08834973,0.0003325,53.2174,170.3922,43.0703,317.0549,6.4947e-05,7.45e-06,0.0,0 STARLINK-3971,1 52642U 22052AW  22346.55844115  .00000745  00000-0  64947-4 0  9990,2 52642  53.2174 170.3922 0003325  43.0703 317.0549 15.08834973 32515,6917.896,95.438,542.061,537.461,0.0
52642.0,STARLINK-3971,PAYLOAD,2022-12-13 13:14:56,15.08838141,0.0003402,53.2166,165.9314,42.1612,317.9642,-2.0356e-06,-3.21e-06,0.0,0 STARLINK-3971,1 52642U 22052AW  22347.55204433 -.00000321  00000-0 -20356-5 0  9993,2 52642  53.2166 165.9314 0003402  42.1612 317.9642 15.08838141 32666,6917.886,95.438,542.105,537.398,0.0
52642.0,STARLINK-3971,PAYLOAD,2022-12-14 05:08:47,15.08840826,0.0003421,53.2177,162.9586,43.6466,316.4796,5.8674e-05,6.45e-06,0.0,0 STARLINK-3971,1 52642U 22052AW  22348.21444132  .00000645  00000-0  58674-4 0  9999,2 52642  53.2177 162.9586 0003421  43.6466 316.4796 15.08840826 33141,6917.878000000002,95.438,542.109,537.376,0.0
52642.0,STARLINK-3971,PAYLOAD,2022-12-14 17:51:52,15.0884078,0.000344,53.2177,160.5798,44.6376,315.4893,0.00012876,1.761e-05,0.0,0 STARLINK-3971,1 52642U 22052AW  22348.74435966  .00001761  00000-0  12876-3 0  9995,2 52642  53.2177 160.5798 0003440  44.6376 315.4893 15.08840780 32844,6917.878000000002,95.438,542.123,537.363,0.0
52642.0,STARLINK-3971,PAYLOAD,2022-12-15 00:13:26,15.08830074,0.0003654,53.2172,159.3902,46.2225,313.9069,2.9865e-05,1.86e-06,0.0,0 STARLINK-3971,1 52642U 22052AW  22349.00932968  .00000186  00000-0  29865-4 0  9996,2 52642  53.2172 159.3902 0003654  46.2225 313.9069 15.08830074 33260,6917.911,95.438,542.304,537.248,0.0
52642.0,STARLINK-3971,PAYLOAD,2022-12-15 11:21:07,15.08834217,0.0003515,53.2176,157.3087,46.1735,313.9547,4.2091e-05,3.81e-06,0.0,0 STARLINK-3971,1 52642U 22052AW  22349.47300864  .00000381  00000-0  42091-4 0  9994,2 52642  53.2176 157.3087 0003515  46.1735 313.9547 15.08834217 32956,6917.898,95.438,542.195,537.331,0.0
52642.0,STARLINK-3971,PAYLOAD,2022-12-15 17:42:40,15.08836965,0.0003458999999999,53.2176,156.1194,46.4039,313.724,6.185e-05,6.96e-06,0.0,0 STARLINK-3971,1 52642U 22052AW  22349.73796720  .00000696  00000-0  61850-4 0  9996,2 52642  53.2176 156.1194 0003459  46.4039 313.7240 15.08836965 33376,6917.89,95.438,542.148,537.362,0.0
52642.0,STARLINK-3971,PAYLOAD,2022-12-16 11:11:54,15.08845804,0.0003439,53.2176,152.8485,46.6181,313.5097,9.1765e-05,1.172e-05,0.0,0 STARLINK-3971,1 52642U 22052AW  22350.46660141  .00001172  00000-0  91765-4 0  9993,2 52642  53.2176 152.8485 0003439  46.6181 313.5097 15.08845804 33482,6917.863,95.437,542.107,537.349,0.0
52642.0,STARLINK-3971,PAYLOAD,2022-12-16 20:44:13,15.08848163,0.0003478999999999,53.2166,151.0646,47.7428,312.3859,0.00030179,4.519e-05,0.0,0 STARLINK-3971,1 52642U 22052AW  22350.86404108  .00004519  00000-0  30179-3 0  9995,2 52642  53.2166 151.0646 0003479  47.7428 312.3859 15.08848163 33160,6917.855,95.437,542.127,537.314,0.0
52642.0,STARLINK-3971,PAYLOAD,2022-12-16 22:19:36,15.08837231,0.0003458999999999,53.2165,150.7672,50.0287,310.1008,0.00056394,8.698e-05,0.0,0 STARLINK-3971,1 52642U 22052AW  22350.93028783  .00008698  00000-0  56394-3 0  9993,2 52642  53.2165 150.7672 0003459  50.0287 310.1008 15.08837231 33551,6917.889,95.438,542.1469999999998,537.361,0.0
52642.0,STARLINK-3971,PAYLOAD,2022-12-17 11:02:41,15.08837835,0.0003578,53.2165,148.388,49.2603,310.87,0.00011512,1.544e-05,0.0,0 STARLINK-3971,1 52642U 22052AW  22351.46020655  .00001544  00000-0  11512-3 0  9998,2 52642  53.2165 148.3880 0003578  49.2603 310.8700 15.08837835 33252,6917.887,95.438,542.227,537.2769999999998,0.0
52642.0,STARLINK-3971,PAYLOAD,2022-12-17 20:35:00,15.08843904,0.000359,53.2164,146.60399999999996,48.6449,311.4852,0.0001318,1.810000000000001e-05,0.0,0 STARLINK-3971,1 52642U 22052AW  22351.85764289  .00001810  00000-0  13180-3 0  9998,2 52642  53.2164 146.6040 0003590  48.6449 311.4852 15.08843904 33311,6917.868,95.437,542.217,537.25,0.0
52642.0,STARLINK-3971,PAYLOAD,2022-12-18 02:56:32,15.08848109,0.00036,53.2166,145.4146,49.0124,311.1179,0.00015803,2.228e-05,0.0,0 STARLINK-3971,1 52642U 22052AW  22352.12259972  .00002228  00000-0  15803-3 0  9995,2 52642  53.2166 145.4146 0003600  49.0124 311.1179 15.08848109 33731,6917.856,95.437,542.211,537.23,0.0
52642.0,STARLINK-3971,PAYLOAD,2022-12-18 10:53:28,15.08843952,0.000357,53.217,143.9287,49.9448,310.1857,4.3967e-05,4.11e-06,0.0,0 STARLINK-3971,1 52642U 22052AW  22352.45380125  .00000411  00000-0  43967-4 0  9991,2 52642  53.2170 143.9287 0003570  49.9448 310.1857 15.08843952 33406,6917.868,95.437,542.203,537.264,0.0
52642.0,STARLINK-3971,PAYLOAD,2022-12-18 17:15:01,15.08840884,0.0003541,53.2171,142.7393,49.8642,310.2659,-7.1952e-07,-3e-06,0.0,0 STARLINK-3971,1 52642U 22052AW  22352.71876263 -.00000300  00000-0 -71952-6 0  9999,2 52642  53.2171 142.7393 0003541  49.8642 310.2659 15.08840884 33823,6917.878000000002,95.437,542.192,537.293,0.0
52642.0,STARLINK-3971,PAYLOAD,2022-12-18 18:50:24,15.08841605,0.0003526,53.2173,142.442,49.3513,310.7785,-8.657999999999999e-06,-4.27e-06,0.0,0 STARLINK-3971,1 52642U 22052AW  22352.78500204 -.00000427  00000-0 -86580-5 0  9997,2 52642  53.2173 142.4420 0003526  49.3513 310.7785 15.08841605 33454,6917.875,95.437,542.18,537.3009999999998,0.0
52642.0,STARLINK-3971,PAYLOAD,2022-12-19 20:16:34,15.08845727,0.0003408,53.2188,137.6845,49.7899,310.3391,-1.3083e-05,-4.97e-06,0.0,0 STARLINK-3971,1 52642U 22052AW  22353.84484102 -.00000497  00000-0 -13083-4 0  9997,2 52642  53.2188 137.6845 0003408  49.7899 310.3391 15.08845727 33613,6917.863,95.437,542.085,537.37,0.0
52642.0,STARLINK-3971,PAYLOAD,2022-12-20 02:38:06,15.08847324,0.0003443,53.2184,136.4946,48.827,311.3019,8.4584e-05,1.058e-05,0.0,0 STARLINK-3971,1 52642U 22052AW  22354.10979703  .00001058  00000-0  84584-4 0  9999,2 52642  53.2184 136.4946 0003443  48.8270 311.3019 15.08847324 34030,6917.858,95.437,542.105,537.341,0.0
52642.0,STARLINK-3971,PAYLOAD,2022-12-20 12:10:25,15.08842311,0.0003409,53.2183,134.71,48.7784,311.3501,0.00015812,2.229e-05,0.0,0 STARLINK-3971,1 52642U 22052AW  22354.50723788  .00002229  00000-0  15812-3 0  9991,2 52642  53.2183 134.7100 0003409  48.7784 311.3501 15.08842311 33714,6917.873000000001,95.437,542.097,537.38,0.0
